E-ST@R-II               
1 41459U 16025D   21134.17746554  .00005600  00000-0  27372-3 0  9992
2 41459  98.1370 268.3478 0161406 177.6630 182.5408 15.07906765277256
AAUSAT 4                
1 41460U 16025E   21134.01119048  .00005540  00000-0  25949-3 0  9990
2 41460  98.1364 271.8769 0147926 162.5913 198.0467 15.10910966277519
BEESAT-4                
1 41619U 16040W   21133.69353659  .00002724  00000-0  11055-3 0  9998
2 41619  97.2718 190.7555 0012542  94.6718 265.5953 15.25369539259715
CANX-7                  
1 41788U 16059F   21134.00901429  .00010611  00000-0  12327-2 0  9991
2 41788  98.2543 237.8497 0019268 309.8718  50.0844 14.85426218248751
RAVAN                   
1 41849U 16067B   21133.62024659  .00001453  00000-0  12496-3 0  9998
2 41849  97.9598 255.6931 0007461 202.7867 157.3025 14.99018502246077
CELTEE 1                
1 41850U 16067C   21133.60372351  .00000817  00000-0  75443-4 0  9998
2 41850  97.9502 252.3309 0007848 219.1599 140.9055 14.97434265245908
OPTICUBE 04             
1 41851U 16067D   21133.59875308  .00000529  00000-0  51205-4 0  9997
2 41851  97.9486 251.7408 0007944 223.3053 136.7544 14.97094308245874
AEROCUBE 8D             
1 41852U 16067E   21133.74101325  .00001038  00000-0  95052-4 0  9990
2 41852  97.9493 251.7536 0008464 222.4726 137.5841 14.97196175245874
AEROCUBE 8C             
1 41853U 16067F   21133.57966195  .00000108  00000-0  14654-4 0  9992
2 41853  97.9481 251.4612 0009115 228.5770 131.4669 14.97158712245847
PROMETHEUS 2-1          
1 41854U 16067G   21133.59773499  .00000917  00000-0  83629-4 0  9994
2 41854  97.9491 252.0541 0009432 223.7508 136.2967 14.97631695245878
PROMETHEUS 2-3          
1 41855U 16067H   21133.59551908  .00000822  00000-0  75534-4 0  9995
2 41855  97.9493 252.1027 0009683 224.7925 135.2515 14.97647539245875
INS-1B                  
1 41954U 17008G   21133.71740467  .00002208  00000-0  88444-4 0  9999
2 41954  97.3097 197.5845 0008064 204.1464 155.9398 15.26062201235711
BGUSAT                  
1 41999U 17008BD  21134.08461299  .00004527  00000-0  15959-3 0  9998
2 41999  97.3257 204.2436 0006803 202.4446 157.6498 15.29757563235456
DIDO-2                  
1 42000U 17008BE  21133.72092069  .00001255  00000-0  52620-4 0  9999
2 42000  97.3097 197.8764 0006927 226.1212 133.9454 15.25308948235098
PEASSS                  
1 42015U 17008BV  21133.68508625  .00001937  00000-0  76311-4 0  9990
2 42015  97.3136 200.2038 0004897 222.1187 137.9676 15.26777828235719
AL-FARABI 1             
1 42016U 17008BW  21133.75532852  .00002966  00000-0  11139-3 0  9997
2 42016  97.3179 201.9683 0004799 217.9872 142.1029 15.27960358235932
NAYIF-1 (EO-88)         
1 42017U 17008BX  21133.72421031  .00002875  00000-0  10789-3 0  9990
2 42017  97.3174 201.9455 0004851 217.6663 142.4237 15.28011356235951
UCLSAT                  
1 42765U 17036A   21134.13571195  .00002150  00000-0  89572-4 0  9997
2 42765  97.2520 184.7760 0009237 304.2282  55.8081 15.24732776216354
LITUANICASAT-2          
1 42768U 17036D   21133.72437231  .00004000  00000-0  15771-3 0  9991
2 42768  97.2594 185.0715 0011942 291.0125  68.9835 15.26077756216171
AALTO-1                 
1 42775U 17036L   21133.65489004  .00001249  00000-0  56573-4 0  9994
2 42775  97.2501 181.0993 0011970 301.4443  58.5623 15.22601981215900
URSA MAIOR              
1 42776U 17036M   21133.66326062  .00001356  00000-0  60746-4 0  9996
2 42776  97.2515 181.5534 0011763 300.8072  59.2007 15.22855967215924
COMPASS 2               
1 42777U 17036N   21133.68442357  .00003082  00000-0  12427-3 0  9995
2 42777  97.2580 185.2314 0009905 294.0815  65.9387 15.25520717216110
DIAMOND RED             
1 42783U 17036U   21134.10512544  .00001476  00000-0  64128-4 0  9997
2 42783  97.2528 183.6296 0010186 308.1646  51.8673 15.23782222216089
PEGASUS                 
1 42784U 17036V   21133.71224116  .00001825  00000-0  77399-4 0  9991
2 42784  97.2533 183.9081 0009960 307.7392  52.2942 15.24314557216067
DIAMOND GREEN           
1 42785U 17036W   21133.57830775  .00001406  00000-0  61221-4 0  9992
2 42785  97.2531 183.1672 0010078 311.2167  48.8202 15.23796201215996
DIAMOND BLUE            
1 42786U 17036X   21133.64314429  .00001596  00000-0  69086-4 0  9991
2 42786  97.2531 183.2229 0009948 311.2529  48.7850 15.23794388216007
NUDTSAT                 
1 42787U 17036Y   21133.89316293  .00002137  00000-0  85338-4 0  9990
2 42787  97.2572 186.3742 0009298 302.3574  57.6767 15.26178063216067
SUCHAI                  
1 42788U 17036Z   21133.66343114  .00002551  00000-0  10471-3 0  9993
2 42788  97.2539 184.8043 0009329 304.7397  55.2962 15.25079401216181
SKCUBE                  
1 42789U 17036AA  21132.70233291  .00002034  00000-0  84688-4 0  9990
2 42789  97.2539 183.6022 0009382 309.6890  50.3520 15.24823062215945
VZLUSAT-1               
1 42790U 17036AB  21132.70650893  .00003048  00000-0  12067-3 0  9990
2 42790  97.2565 185.2125 0008550 304.5297  55.5134 15.26153931216031
ROBUSTA-1B              
1 42792U 17036AD  21133.66085877  .00002317  00000-0  95437-4 0  9993
2 42792  97.2535 184.8967 0008839 305.8681  54.1736 15.25058244216123
CICERO 6                
1 42793U 17036AE  21133.69625422  .00001432  00000-0  61954-4 0  9997
2 42793  97.2512 183.8159 0008473 311.2212  48.8295 15.23992683216140
D-SAT                   
1 42794U 17036AF  21134.01079670  .00000512  00000-0  49408-4 0  9991
2 42794  97.4634 155.7273 0125058 341.7883  17.8877 14.91548809211962
CORVUS BC2              
1 42846U 17042X   21133.69919993  .00000075  00000-0  12527-4 0  9996
2 42846  97.4774   7.4907 0008000 252.5229 107.5117 14.92283316208658
CORVUS BC1              
1 42847U 17042Y   21133.60530997  .00000353  00000-0  39641-4 0  9996
2 42847  97.4777   7.6330 0007694 251.7705 108.2677 14.92386063208643
MIRATA                  
1 43015U 17073C   21133.72591744  .00002547  00000-0  19701-3 0  9999
2 43015  97.7063  39.3501 0251460  50.5568 311.7605 14.80617116188077
MAKERSAT 0              
1 43016U 17073D   21133.67549315  .00001558  00000-0  12319-3 0  9990
2 43016  97.7096  39.3606 0255086  52.7671 309.6520 14.79903551188023
DELLINGR (RBLE)         
1 43021U 98067NJ  21134.05166360  .00244796  37770-4  36995-3 0  9993
2 43021  51.6238   6.2294 0003471 216.7657 143.3117 16.04088449199147
AEROCUBE 7B (OCSD B)    
1 43042U 17071F   21133.54937568  .00009327  00000-0  18354-3 0  9991
2 43042  51.6368 242.3972 0003230 177.9281 182.1720 15.47985641193426
AEROCUBE 7C (OCSD C)    
1 43043U 17071G   21133.69804918  .00009758  00000-0  19290-3 0  9998
2 43043  51.6360 241.8965 0003449 183.0410 177.0558 15.47791749193414
CHEFSAT                 
1 43044U 17071H   21133.73627654  .00023039  00000-0  29900-3 0  9991
2 43044  51.6345 209.5627 0001335 246.8406 113.2446 15.58724858193854
ASGARDIA 1              
1 43049U 17071N   21133.69828846  .00009103  00000-0  18133-3 0  9999
2 43049  51.6380 241.2711 0001516 203.9538 156.1379 15.47664761193413
ISARA                   
1 43050U 17071P   21133.48001119  .00021164  00000-0  30471-3 0  9994
2 43050  51.6322 217.3888 0001075 289.9540  70.1335 15.55987259193716
PROPCUBE 2 (FAUNA)      
1 43052U 17071R   21133.68351857  .00009743  00000-0  18783-3 0  9996
2 43052  51.6366 238.1756 0001367 204.2411 155.8513 15.48523599193457
CORVUS BC3              
1 43118U 18004H   21133.68841775  .00001299  00000-0  56278-4 0  9999
2 43118  97.4046 206.6539 0009328 341.4145  18.6750 15.24167818185288
MICROMAS-2A             
1 43131U 18004W   21133.72519286  .00003794  00000-0  14510-3 0  9992
2 43131  97.4119 209.8713 0007416 336.1064  23.9829 15.27179106185462
SPACEBEE-4              
1 43139U 18004AE  21133.66590909  .00005677  00000-0  20230-3 0  9992
2 43139  97.4181 212.0224 0006511 335.3050  24.7878 15.29305408185565
SPACEBEE-3              
1 43140U 18004AF  21133.74351301  .00007578  00000-0  25582-3 0  9991
2 43140  97.4209 213.4863 0005785 330.6709  29.4206 15.30957307185664
SPACEBEE-2              
1 43141U 18004AG  21134.02632636  .00007941  00000-0  26319-3 0  9990
2 43141  97.4228 214.3029 0005611 327.6865  32.4032 15.31535767185739
SPACEBEE-1              
1 43142U 18004AH  21133.75832410  .00009232  00000-0  29914-3 0  9991
2 43142  97.4237 214.5689 0005454 327.0525  33.0376 15.32218951185716
CICERO 7                
1 43143U 18004AJ  21133.73186345  .00003414  00000-0  13138-3 0  9996
2 43143  97.4094 209.9456 0006118 349.7249  10.3864 15.27053298185489
GOMX-4B                 
1 43196U 18015E   21134.08400757  .00001156  00000-0  49250-4 0  9997
2 43196  97.4798 267.1340 0018964  26.0738 334.1450 15.24893533182279
GOMX-4A                 
1 43197U 18015F   21134.18309119  .00001728  00000-0  71139-4 0  9995
2 43197  97.4795 267.4660 0018957  27.2429  95.6077 15.25364329182313
TEMPEST-D               
1 43547U 98067NV  21134.10110028  .00075574  13423-4  21045-3 0  9997
2 43547  51.6304  61.0260 0003968 128.7114 231.4248 15.93846529161508
AEROCUBE 12A            
1 43556U 18046C   21134.01786753  .00002648  00000-0  97371-4 0  9991
2 43556  51.6412 315.4121 0008081  43.8494 316.3127 15.31596447158002
AEROCUBE 12B            
1 43557U 18046D   21133.96899983  .00002818  00000-0  10462-3 0  9999
2 43557  51.6416 317.3050 0008142  42.5181 317.6429 15.31024644157920
SURFSAT                 
1 43614U 18070B   21133.69594326  .00005863  00000-0  13796-3 0  9999
2 43614  93.0276 291.5245 0016246 132.0564 228.2077 15.41849146149314
CP7 (DAVE)              
1 43615U 18070C   21133.70685826  .00005926  00000-0  14073-3 0  9997
2 43615  93.0280 291.4892 0016402 132.0838 228.1815 15.41572411149301
ELFIN-B                 
1 43616U 18070D   21133.72832578  .00009689  00000-0  20990-3 0  9993
2 43616  93.0236 291.6476 0016340 130.7780 229.4898 15.44287239149416
